NORAD_CAT_ID,OBJECT_NAME,OBJECT_TYPE,EPOCH,MEAN_MOTION,ECCENTRICITY,INCLINATION,RA_OF_ASC_NODE,ARG_OF_PERICENTER,MEAN_ANOMALY,BSTAR,MEAN_MOTION_DOT,MEAN_MOTION_DDOT,TLE_LINE0,TLE_LINE1,TLE_LINE2,SEMIMAJOR_AXIS,PERIOD,APOGEE,PERIGEE,DECAYED
55917.0,STARLINK-5855,PAYLOAD,2023-10-31 10:28:48,15.01687706,0.0003191,70.0004,312.8909,303.696,56.3896,0.00086146,0.00011141,0.0,0 STARLINK-5855,1 55917U 23037D   23304.43666858  .00011141  00000-0  86146-3 0  9996,2 55917  70.0004 312.8909 0003191 303.6960  56.3896 15.01687706 34985,6939.829,95.892,563.908,559.479,0.0
55917.0,STARLINK-5855,PAYLOAD,2023-10-31 18:28:23,15.01698093,0.000332,70.0014,312.0467,299.6606,60.4224,0.0010048,0.00013018,0.0,0 STARLINK-5855,1 55917U 23037D   23304.76971987  .00013018  00000-0  10048-2 0  9996,2 55917  70.0014 312.0467 0003320 299.6606  60.4224 15.01698093 34692,6939.797,95.891,563.966,559.358,0.0
55917.0,STARLINK-5855,PAYLOAD,2023-11-01 10:27:34,15.01711097,0.0002948,70.0014,310.358,307.581,52.5083,0.00074928,9.682e-05,0.0,0 STARLINK-5855,1 55917U 23037D   23305.43582061  .00009682  00000-0  74928-3 0  9992,2 55917  70.0014 310.3580 0002948 307.5810  52.5083 15.01711097 34796,6939.757,95.891,563.668,559.576,0.0
55917.0,STARLINK-5855,PAYLOAD,2023-11-02 04:02:39,15.01736181,0.0002936,70.0012,308.5015,302.5921,57.4956,0.0010505,0.0001363,0.0,0 STARLINK-5855,1 55917U 23037D   23306.16851806  .00013630  00000-0  10505-2 0  9997,2 55917  70.0012 308.5015 0002936 302.5921  57.4956 15.01736181 35246,6939.679,95.889,563.582,559.507,0.0
55917.0,STARLINK-5855,PAYLOAD,2023-11-02 10:26:20,15.01739312,0.0003234,70.0015,307.8259,301.947,58.1376,0.0010585,0.00013736,0.0,0 STARLINK-5855,1 55917U 23037D   23306.43495404  .00013736  00000-0  10585-2 0  9990,2 55917  70.0015 307.8259 0003234 301.9470  58.1376 15.01739312 34944,6939.67,95.889,563.779,559.291,0.0
55917.0,STARLINK-5855,PAYLOAD,2023-11-03 10:25:03,15.01765905,0.0003338,70.0023,305.2933,315.5923,44.497,0.00075026,9.709e-05,0.0,0 STARLINK-5855,1 55917U 23037D   23307.43406941  .00009709  00000-0  75026-3 0  9996,2 55917  70.0023 305.2933 0003338 315.5923  44.4970 15.01765905 35433,6939.588,95.887,563.769,559.136,0.0
55917.0,STARLINK-5855,PAYLOAD,2023-11-03 16:48:42,15.01779578,0.0003234,70.0015,304.6181,308.1003,51.9866,0.001127,0.00014648,0.0,0 STARLINK-5855,1 55917U 23037D   23307.70049499  .00014648  00000-0  11270-2 0  9995,2 55917  70.0015 304.6181 0003234 308.1003  51.9866 15.01779578 35139,6939.546,95.886,563.655,559.167,0.0
55917.0,STARLINK-5855,PAYLOAD,2023-11-04 04:00:06,15.01793954,0.0003554,70.0003,303.4358,301.9887,58.0928,0.0010968,0.00014258,0.0,0 STARLINK-5855,1 55917U 23037D   23308.16673736  .00014258  00000-0  10968-2 0  9993,2 55917  70.0003 303.4358 0003554 301.9887  58.0928 15.01793954 35541,6939.501,95.885,563.833,558.9,0.0
55917.0,STARLINK-5855,PAYLOAD,2023-11-04 10:23:45,15.0180179,0.0003532,70.0002,302.7604,301.772,58.3096,0.0010879,0.00014144,0.0,0 STARLINK-5855,1 55917U 23037D   23308.43316086  .00014144  00000-0  10879-2 0  9990,2 55917  70.0002 302.7604 0003532 301.7720  58.3096 15.01801790 35240,6939.477,95.885,563.793,558.891,0.0
55917.0,STARLINK-5855,PAYLOAD,2023-11-04 23:11:02,15.01822945,0.0003555,70.0001,301.4096,302.237,57.8446,0.0014007,0.0001826,0.0,0 STARLINK-5855,1 55917U 23037D   23308.96600285  .00018260  00000-0  14007-2 0  9995,2 55917  70.0001 301.4096 0003555 302.2370  57.8446 15.01822945 35329,6939.412,95.883,563.744,558.81,0.0
55917.0,STARLINK-5855,PAYLOAD,2023-11-05 05:34:41,15.01835592,0.0003524,70.0001,300.7343,301.1496,58.9319,0.0015983,0.00020864,0.0,0 STARLINK-5855,1 55917U 23037D   23309.23242071  .00020864  00000-0  15983-2 0  9998,2 55917  70.0001 300.7343 0003524 301.1496  58.9319 15.01835592 35704,6939.373,95.883,563.684,558.793,0.0
55917.0,STARLINK-5855,PAYLOAD,2023-11-05 10:22:24,15.01842981,0.0003523,70.0001,300.2278,300.7012,59.3802,0.0015836,0.00020674,0.0,0 STARLINK-5855,1 55917U 23037D   23309.43223312  .00020674  00000-0  15836-2 0  9993,2 55917  70.0001 300.2278 0003523 300.7012  59.3802 15.01842981 35391,6939.35,95.882,563.66,558.771,0.0
55917.0,STARLINK-5855,PAYLOAD,2023-11-05 16:46:03,15.01851505,0.0003521,70.0001,299.5523,300.3729,59.7083,0.001419,0.00018514,0.0,0 STARLINK-5855,1 55917U 23037D   23309.69864723  .00018514  00000-0  14190-2 0  9990,2 55917  70.0001 299.5523 0003521 300.3729  59.7083 15.01851505 35435,6939.324,95.882,563.633,558.746,0.0
55917.0,STARLINK-5855,PAYLOAD,2023-11-06 02:21:29,15.01891889,0.0003512,69.9999,298.5387,299.4534,60.6276,0.0028025,0.00036793,0.0,0 STARLINK-5855,1 55917U 23037D   23310.09826162  .00036793  00000-0  28025-2 0  9992,2 55917  69.9999 298.5387 0003512 299.4534  60.6276 15.01891889 35835,6939.2,95.879,563.502,558.628,0.0
55917.0,STARLINK-5855,PAYLOAD,2023-11-06 08:45:07,15.01905659,0.0003511,70.0,297.8632,300.046,60.0352,0.0024585,0.00032256,0.0,0 STARLINK-5855,1 55917U 23037D   23310.36466779  .00032256  00000-0  24585-2 0  9993,2 55917  70.0000 297.8632 0003511 300.0460  60.0352 15.01905659 35539,6939.157,95.878,563.459,558.586,0.0
55917.0,STARLINK-5855,PAYLOAD,2023-11-07 03:55:58,15.01939438,0.0003531,70.0,295.8368,298.3073,61.7731,0.001693,0.0002217,0.0,0 STARLINK-5855,1 55917U 23037D   23311.16387226  .00022170  00000-0  16930-2 0  9990,2 55917  70.0000 295.8368 0003531 298.3073  61.7731 15.01939438 35995,6939.053,95.876,563.369,558.468,0.0
55917.0,STARLINK-5855,PAYLOAD,2023-11-07 08:43:41,15.01950535,0.0003548,69.9999,295.3301,298.5586,61.5217,0.0017822,0.00023354,0.0,0 STARLINK-5855,1 55917U 23037D   23311.36366971  .00023354  00000-0  17822-2 0  9992,2 55917  69.9999 295.3301 0003548 298.5586  61.5217 15.01950535 35684,6939.019,95.875,563.346,558.422,0.0
55917.0,STARLINK-5855,PAYLOAD,2023-11-08 08:42:12,15.01996718,0.0003392,70.0007,292.7972,300.0351,60.0473,0.0016421,0.00021531,0.0,0 STARLINK-5855,1 55917U 23037D   23312.36264087  .00021531  00000-0  16421-2 0  9997,2 55917  70.0007 292.7972 0003392 300.0351  60.0473 15.01996718 36174,6938.877,95.872,563.096,558.388,0.0
55917.0,STARLINK-5855,PAYLOAD,2023-11-08 16:41:42,15.01974492,0.0003326,70.0021,291.9556,303.0906,56.9935,-0.00069641,-9.223e-05,0.0,0 STARLINK-5855,1 55917U 23037D   23312.69563022 -.00009223  00000-0 -69641-3 0  9993,2 55917  70.0021 291.9556 0003326 303.0906  56.9935 15.01974492 36223,6938.945,95.874,563.118,558.503,0.0
55917.0,STARLINK-5855,PAYLOAD,2023-11-09 03:52:58,15.02072487,0.000428,70.0017,290.7738,312.9177,47.1624,0.0042311,0.00056019,0.0,0 STARLINK-5855,1 55917U 23037D   23313.16178927  .00056019  00000-0  42311-2 0  9999,2 55917  70.0017 290.7738 0004280 312.9177  47.1624 15.02072487 36294,6938.644,95.868,563.478,557.539,0.0
55917.0,STARLINK-5855,PAYLOAD,2023-11-09 08:40:40,15.02044603,0.0003564,69.9999,290.2637,300.2269,59.8539,0.0014438,0.00018937,0.0,0 STARLINK-5855,1 55917U 23037D   23313.36157932  .00018937  00000-0  14438-2 0  9990,2 55917  69.9999 290.2637 0003564 300.2269  59.8539 15.02044603 36327,6938.729,95.869,563.067,558.122,0.0
55917.0,STARLINK-5855,PAYLOAD,2023-11-09 23:03:44,15.0206396,0.0004067,70.0,288.744,303.0369,57.0401,0.0013809,0.00018115,0.0,0 STARLINK-5855,1 55917U 23037D   23313.96093059  .00018115  00000-0  13809-2 0  9994,2 55917  70.0000 288.7440 0004067 303.0369  57.0401 15.02063960 36075,6938.67,95.868,563.357,557.713,0.0
55917.0,STARLINK-5855,PAYLOAD,2023-11-10 08:39:06,15.02078504,0.0003575,69.9997,287.73,298.1678,61.9121,0.0014355,0.00018844,0.0,0 STARLINK-5855,1 55917U 23037D   23314.36049218  .00018844  00000-0  14355-2 0  9993,2 55917  69.9997 287.7300 0003575 298.1678  61.9121 15.02078504 36131,6938.625,95.867,562.971,558.01,0.0
55917.0,STARLINK-5855,PAYLOAD,2023-11-10 15:02:41,15.02087094,0.0003502,69.9998,287.0549,297.0176,63.0628,0.0013636,0.00017897,0.0,0 STARLINK-5855,1 55917U 23037D   23314.62686516  .00017897  00000-0  13636-2 0  9998,2 55917  69.9998 287.0549 0003502 297.0176  63.0628 15.02087094 36512,6938.599,95.867,562.894,558.034,0.0
55917.0,STARLINK-5855,PAYLOAD,2023-11-11 03:49:49,15.02128168,0.0003695,69.9997,285.7036,297.7403,62.3383,0.0016632,0.00021887,0.0,0 STARLINK-5855,1 55917U 23037D   23315.15959708  .00021887  00000-0  16632-2 0  9996,2 55917  69.9997 285.7036 0003695 297.7403  62.3383 15.02128168 36596,6938.472,95.864,562.901,557.773,0.0
55917.0,STARLINK-5855,PAYLOAD,2023-11-11 08:37:30,15.02098465,0.0003807,70.0003,285.1965,307.6587,52.4229,0.00048761,6.329e-05,0.0,0 STARLINK-5855,1 55917U 23037D   23315.35938312  .00006329  00000-0  48761-3 0  9999,2 55917  70.0003 285.1965 0003807 307.6587  52.4229 15.02098465 36620,6938.564,95.866,563.07,557.787,0.0
55917.0,STARLINK-5855,PAYLOAD,2023-11-11 15:01:05,15.0208936,0.0003347,69.9998,284.521,299.215,60.8676,-9.7418e-05,-1.378e-05,0.0,0 STARLINK-5855,1 55917U 23037D   23315.62575567 -.00001378  00000-0 -97418-4 0  9993,2 55917  69.9998 284.5210 0003347 299.2150  60.8676 15.02089360 36664,6938.592,95.866,562.779,558.134,0.0
55917.0,STARLINK-5855,PAYLOAD,2023-11-12 07:00:01,15.02091389,0.0003406,69.9996,282.831,299.7909,60.2913,0.00067478,8.797e-05,0.0,0 STARLINK-5855,1 55917U 23037D   23316.29168678  .00008797  00000-0  67478-3 0  9990,2 55917  69.9996 282.8310 0003406 299.7909  60.2913 15.02091389 36423,6938.585,95.866,562.814,558.087,0.0
55917.0,STARLINK-5855,PAYLOAD,2023-11-12 14:59:29,15.02104215,0.0003499,69.9997,281.9869,297.6383,62.4422,0.0012036,0.00015788,0.0,0 STARLINK-5855,1 55917U 23037D   23316.62464935  .00015788  00000-0  12036-2 0  9999,2 55917  69.9997 281.9869 0003499 297.6383  62.4422 15.02104215 36813,6938.546,95.866,562.839,557.983,0.0
55917.0,STARLINK-5855,PAYLOAD,2023-11-12 21:23:03,15.02112095,0.0003493,70.0,281.3114,296.9228,63.1576,0.001171,0.0001536,0.0,0 STARLINK-5855,1 55917U 23037D   23316.89101771  .00015360  00000-0  11710-2 0  9998,2 55917  70.0000 281.3114 0003493 296.9228  63.1576 15.02112095 36512,6938.522,95.865,562.81,557.963,0.0
